{
    "links": {
        "self": "http://www.neowsapp.com/rest/v1/neo/3092279?api_key=iIulBulltgU6a56xZRHN4H3l9WmuAYTsLGpBGhQ2"
    },
    "id": "3092279",
    "neo_reference_id": "3092279",
    "name": "(2000 WN148)",
    "designation": "2000 WN148",
    "nasa_jpl_url": "http://ssd.jpl.nasa.gov/sbdb.cgi?sstr=3092279",
    "absolute_magnitude_h": 22.4,
    "estimated_diameter": {
        "kilometers": {
            "estimated_diameter_min": 0.0880146521,
            "estimated_diameter_max": 0.1968067451
        },
        "meters": {
            "estimated_diameter_min": 88.0146520901,
            "estimated_diameter_max": 196.8067450894
        },
        "miles": {
            "estimated_diameter_min": 0.0546897524,
            "estimated_diameter_max": 0.122290004
        },
        "feet": {
            "estimated_diameter_min": 288.7619911632,
            "estimated_diameter_max": 645.6914415591
        }
    },
    "is_potentially_hazardous_asteroid": false,
    "close_approach_data": [
        {
            "close_approach_date": "1990-12-05",
            "close_approach_date_full": "1990-Dec-05 03:38",
            "epoch_date_close_approach": 660368280000,
            "relative_velocity": {
                "kilometers_per_second": "10.4116541217",
                "kilometers_per_hour": "37481.9548380649",
                "miles_per_hour": "23289.8291047965"
            },
            "miss_distance": {
                "astronomical": "0.2824832193",
                "lunar": "109.8859723077",
                "kilometers": "42258887.918022891",
                "miles": "26258455.3315062558"
            },
            "orbiting_body": "Earth"
        },
        {
            "close_approach_date": "2000-11-30",
            "close_approach_date_full": "2000-Nov-30 16:40",
            "epoch_date_close_approach": 975602400000,
            "relative_velocity": {
                "kilometers_per_second": "7.0386793745",
                "kilometers_per_hour": "25339.245748132",
                "miles_per_hour": "15744.8218927768"
            },
            "miss_distance": {
                "astronomical": "0.0769646308",
                "lunar": "29.9392413812",
                "kilometers": "11513744.833016396",
                "miles": "7154309.2895064248"
            },
            "orbiting_body": "Earth"
        },
        {
            "close_approach_date": "2025-10-26",
            "close_approach_date_full": "2025-Oct-26 02:00",
            "epoch_date_close_approach": 1761444000000,
            "relative_velocity": {
                "kilometers_per_second": "7.248802537",
                "kilometers_per_hour": "26095.6891332949",
                "miles_per_hour": "16214.8463950743"
            },
            "miss_distance": {
                "astronomical": "0.0954197774",
                "lunar": "37.1182934086",
                "kilometers": "14274595.454914138",
                "miles": "8869822.3165575844"
            },
            "orbiting_body": "Mars"
        }
    ],
    "orbital_data": {
        "orbit_id": "11",
        "orbit_determination_date": "2017-04-06 09:16:38",
        "first_observation_date": "2000-11-29",
        "last_observation_date": "2000-12-21",
        "data_arc_in_days": 22,
        "observations_used": 18,
        "orbit_uncertainty": "7",
        "minimum_orbit_intersection": ".0603724",
        "jupiter_tisserand_invariant": "5.060",
        "epoch_osculation": "2459000.5",
        "eccentricity": ".1735441801120305",
        "semi_major_axis": "1.265673951600554",
        "inclination": "12.43079629598662",
        "ascending_node_longitude": "248.8111283502699",
        "orbital_period": "520.0932173268041",
        "perihelion_distance": "1.046023603380882",
        "perihelion_argument": "177.6014257395534",
        "aphelion_distance": "1.485324299820226",
        "perihelion_time": "2459162.532617552921",
        "mean_anomaly": "247.8436780643527",
        "mean_motion": ".6921836086429706",
        "equinox": "J2000",
        "orbit_class": {
            "orbit_class_type": "AMO",
            "orbit_class_description": "Near-Earth asteroid orbits similar to that of 1221 Amor",
            "orbit_class_range": "1.017 AU < q (perihelion) < 1.3 AU"
        }
    },
    "is_sentry_object": false
}